[C_McNaught-Russell%281991w_1990XXII%29]
absolute_magnitude=5.0
albedo=0.1
color=1.0, 1.0, 1.0
coord_func=comet_orbit
dust_brightnessfactor=1.5
dust_lengthfactor=0.4
dust_widthfactor=1.5
name="C/McNaught-Russell (1991w=1990XXII)"
orbit_ArgOfPericenter=149.23959
orbit_AscendingNode=149.41834
orbit_Eccentricity=0.99933460
orbit_Epoch=2448200.500000
orbit_Inclination=104.51511
orbit_PericenterDistance=6.98642140
orbit_TimeAtPericenter=2448207.75672
orbit_good=1000
radius=5
slope_parameter=4.0
tex_map=nomap.png
type=comet

[C_McNaught-Russell%281993v%29]
absolute_magnitude=9.1
albedo=0.1
color=1.0, 1.0, 1.0
coord_func=comet_orbit
dust_brightnessfactor=1.5
dust_lengthfactor=0.4
dust_widthfactor=1.5
name=C/McNaught-Russell (1993v)
orbit_ArgOfPericenter=353.46920
orbit_AscendingNode=165.65883
orbit_Eccentricity=0.99375090
orbit_Epoch=2449440.500000
orbit_Inclination=51.59545
orbit_PericenterDistance=0.86764040
orbit_TimeAtPericenter=2449442.59774
orbit_good=1000
radius=5
slope_parameter=3.4
tex_map=nomap.png
type=comet

[C_McNaught-Tritton%281978XXVII%29]
absolute_magnitude=5.0
albedo=0.1
color=1.0, 1.0, 1.0
coord_func=comet_orbit
dust_brightnessfactor=1.5
dust_lengthfactor=0.4
dust_widthfactor=1.5
name=C/McNaught-Tritton (1978XXVII)
orbit_ArgOfPericenter=229.49537
orbit_AscendingNode=71.50488
orbit_Eccentricity=1.00213640
orbit_Epoch=2443760.500000
orbit_Inclination=153.18142
orbit_PericenterDistance=6.28283660
orbit_TimeAtPericenter=2443745.04012
orbit_good=1000
radius=5
slope_parameter=4.0
tex_map=nomap.png
type=comet

[C_Mechain%281781I%29]
absolute_magnitude=7.9
albedo=0.1
color=1.0, 1.0, 1.0
coord_func=comet_orbit
dust_brightnessfactor=1.5
dust_lengthfactor=0.4
dust_widthfactor=1.5
name=C/Mechain (1781I)
orbit_ArgOfPericenter=156.20200
orbit_AscendingNode=85.35900
orbit_Eccentricity=1.00000000
orbit_Epoch=2371745.188900
orbit_Inclination=81.72400
orbit_PericenterDistance=0.77586100
orbit_TimeAtPericenter=2371745.18890
orbit_good=1000
radius=5
slope_parameter=4.0
tex_map=nomap.png
type=comet

[C_Mechain%281781II%29]
absolute_magnitude=5.9
albedo=0.1
color=1.0, 1.0, 1.0
coord_func=comet_orbit
dust_brightnessfactor=1.5
dust_lengthfactor=0.4
dust_widthfactor=1.5
name=C/Mechain (1781II)
orbit_ArgOfPericenter=61.37800
orbit_AscendingNode=79.77100
orbit_Eccentricity=1.00000000
orbit_Epoch=2371890.523200
orbit_Inclination=152.80100
orbit_PericenterDistance=0.96099500
orbit_TimeAtPericenter=2371890.52320
orbit_good=1000
radius=5
slope_parameter=4.6
tex_map=nomap.png
type=comet

[C_Mechain%281785II%29]
absolute_magnitude=5.6
albedo=0.1
color=1.0, 1.0, 1.0
coord_func=comet_orbit
dust_brightnessfactor=1.5
dust_lengthfactor=0.4
dust_widthfactor=1.5
name=C/Mechain (1785II)
orbit_ArgOfPericenter=127.19680
orbit_AscendingNode=66.98880
orbit_Eccentricity=0.99646100
orbit_Epoch=2373116.414000
orbit_Inclination=92.63670
orbit_PericenterDistance=0.42724000
orbit_TimeAtPericenter=2373116.41400
orbit_good=1000
radius=5
slope_parameter=4.0
tex_map=nomap.png
type=comet

[C_Mechain%281787%29]
absolute_magnitude=5.0
albedo=0.1
color=1.0, 1.0, 1.0
coord_func=comet_orbit
dust_brightnessfactor=1.5
dust_lengthfactor=0.4
dust_widthfactor=1.5
name=C/Mechain (1787)
orbit_ArgOfPericenter=99.15000
orbit_AscendingNode=109.14800
orbit_Eccentricity=1.00000000
orbit_Epoch=2373878.825000
orbit_Inclination=131.72700
orbit_PericenterDistance=0.34891100
orbit_TimeAtPericenter=2373878.82500
orbit_good=1000
radius=5
slope_parameter=4.0
tex_map=nomap.png
type=comet

[C_Mechain%281799I%29]
absolute_magnitude=5.5
albedo=0.1
color=1.0, 1.0, 1.0
coord_func=comet_orbit
dust_brightnessfactor=1.5
dust_lengthfactor=0.4
dust_widthfactor=1.5
name=C/Mechain (1799I)
orbit_ArgOfPericenter=95.82000
orbit_AscendingNode=101.62300
orbit_Eccentricity=1.00000000
orbit_Epoch=2378381.190900
orbit_Inclination=129.06300
orbit_PericenterDistance=0.83986300
orbit_TimeAtPericenter=2378381.19090
orbit_good=1000
radius=5
slope_parameter=4.0
tex_map=nomap.png
type=comet

[C_Mechain%281799II%29]
absolute_magnitude=6.2
albedo=0.1
color=1.0, 1.0, 1.0
coord_func=comet_orbit
dust_brightnessfactor=1.5
dust_lengthfactor=0.4
dust_widthfactor=1.5
name=C/Mechain (1799II)
orbit_ArgOfPericenter=136.47400
orbit_AscendingNode=328.91200
orbit_Eccentricity=1.00000000
orbit_Epoch=2378490.896400
orbit_Inclination=102.99000
orbit_PericenterDistance=0.62580200
orbit_TimeAtPericenter=2378490.89640
orbit_good=1000
radius=5
slope_parameter=4.0
tex_map=nomap.png
type=comet

[C_Meier%281978f_1978XXI%29]
absolute_magnitude=7.7
albedo=0.1
color=1.0, 1.0, 1.0
coord_func=comet_orbit
dust_brightnessfactor=1.5
dust_lengthfactor=0.4
dust_widthfactor=1.5
name="C/Meier (1978f=1978XXI)"
orbit_ArgOfPericenter=231.40300
orbit_AscendingNode=348.64570
orbit_Eccentricity=1.00085000
orbit_Epoch=2443840.500000
orbit_Inclination=43.75490
orbit_PericenterDistance=1.13652400
orbit_TimeAtPericenter=2443823.90900
orbit_good=1000
radius=5
slope_parameter=0.0
tex_map=nomap.png
type=comet

[C_Meier%281979i_1979IX%29]
absolute_magnitude=9.3
albedo=0.1
color=1.0, 1.0, 1.0
coord_func=comet_orbit
dust_brightnessfactor=1.5
dust_lengthfactor=0.4
dust_widthfactor=1.5
name="C/Meier (1979i=1979IX)"
orbit_ArgOfPericenter=112.57870
orbit_AscendingNode=296.92980
orbit_Eccentricity=0.97319700
orbit_Epoch=2444160.500000
orbit_Inclination=67.08060
orbit_PericenterDistance=1.43208100
orbit_TimeAtPericenter=2444163.84580
orbit_good=1000
radius=5
slope_parameter=4.0
tex_map=nomap.png
type=comet

[C_Meier%281980q_1980XII%29]
absolute_magnitude=6.5
albedo=0.1
color=1.0, 1.0, 1.0
coord_func=comet_orbit
dust_brightnessfactor=1.5
dust_lengthfactor=0.4
dust_widthfactor=1.5
name="C/Meier (1980q=1980XII)"
orbit_ArgOfPericenter=87.96420
orbit_AscendingNode=24.73750
orbit_Eccentricity=0.99465700
orbit_Epoch=2444600.500000
orbit_Inclination=100.98060
orbit_PericenterDistance=1.51955000
orbit_TimeAtPericenter=2444583.15000
orbit_good=1000
radius=5
slope_parameter=3.6
tex_map=nomap.png
type=comet

[C_Meier%281984o_1984XX%29]
absolute_magnitude=4.0
albedo=0.1
color=1.0, 1.0, 1.0
coord_func=comet_orbit
dust_brightnessfactor=1.5
dust_lengthfactor=0.4
dust_widthfactor=1.5
name="C/Meier (1984o=1984XX)"
orbit_ArgOfPericenter=128.00498
orbit_AscendingNode=11.00923
orbit_Eccentricity=1.00000000
orbit_Epoch=2445987.448620
orbit_Inclination=145.60832
orbit_PericenterDistance=0.85685590
orbit_TimeAtPericenter=2445987.44862
orbit_good=1000
radius=5
slope_parameter=4.0
tex_map=nomap.png
type=comet

[C_Mellish%281907e_1907V%29]
absolute_magnitude=8.4
albedo=0.1
color=1.0, 1.0, 1.0
coord_func=comet_orbit
dust_brightnessfactor=1.5
dust_lengthfactor=0.4
dust_widthfactor=1.5
name="C/Mellish (1907e=1907V)"
orbit_ArgOfPericenter=294.37230
orbit_AscendingNode=55.19420
orbit_Eccentricity=1.00000000
orbit_Epoch=2417833.356300
orbit_Inclination=119.63150
orbit_PericenterDistance=0.98294900
orbit_TimeAtPericenter=2417833.35630
orbit_good=1000
radius=5
slope_parameter=8.0
tex_map=nomap.png
type=comet

[C_Mellish%281915a_1915II%29]
absolute_magnitude=4.5
albedo=0.1
color=1.0, 1.0, 1.0
coord_func=comet_orbit
dust_brightnessfactor=1.5
dust_lengthfactor=0.4
dust_widthfactor=1.5
name="C/Mellish (1915a=1915II)"
orbit_ArgOfPericenter=247.77670
orbit_AscendingNode=72.75880
orbit_Eccentricity=1.00015100
orbit_Epoch=2420680.500000
orbit_Inclination=54.79080
orbit_PericenterDistance=1.00528600
orbit_TimeAtPericenter=2420696.15230
orbit_good=1000
radius=5
slope_parameter=4.0
tex_map=nomap.png
type=comet

[C_Mellish%281915d_1915IV%29]
absolute_magnitude=10.0
albedo=0.1
color=1.0, 1.0, 1.0
coord_func=comet_orbit
dust_brightnessfactor=1.5
dust_lengthfactor=0.4
dust_widthfactor=1.5
name="C/Mellish (1915d=1915IV)"
orbit_ArgOfPericenter=118.84000
orbit_AscendingNode=78.20000
orbit_Eccentricity=1.00000000
orbit_Epoch=2420784.395900
orbit_Inclination=53.54500
orbit_PericenterDistance=0.44329000
orbit_TimeAtPericenter=2420784.39590
orbit_good=1000
radius=5
slope_parameter=4.0
tex_map=nomap.png
type=comet

[C_Messier%281759II%29]
absolute_magnitude=3.3
albedo=0.1
color=1.0, 1.0, 1.0
coord_func=comet_orbit
dust_brightnessfactor=1.5
dust_lengthfactor=0.4
dust_widthfactor=1.5
name=C/Messier (1759II)
orbit_ArgOfPericenter=273.92400
orbit_AscendingNode=142.30900
orbit_Eccentricity=1.00000000
orbit_Epoch=2363852.001800
orbit_Inclination=79.09000
orbit_PericenterDistance=0.80139000
orbit_TimeAtPericenter=2363852.00180
orbit_good=1000
radius=5
slope_parameter=4.0
tex_map=nomap.png
type=comet

[C_Messier%281763%29]
absolute_magnitude=9.5
albedo=0.1
color=1.0, 1.0, 1.0
coord_func=comet_orbit
dust_brightnessfactor=1.5
dust_lengthfactor=0.4
dust_widthfactor=1.5
name=C/Messier (1763)
orbit_ArgOfPericenter=88.57000
orbit_AscendingNode=359.04800
orbit_Eccentricity=1.00000000
orbit_Epoch=2365287.873800
orbit_Inclination=72.49100
orbit_PericenterDistance=0.49818500
orbit_TimeAtPericenter=2365287.87380
orbit_good=1000
radius=5
slope_parameter=4.0
tex_map=nomap.png
type=comet

[C_Messier%281764%29]
absolute_magnitude=7.0
albedo=0.1
color=1.0, 1.0, 1.0
coord_func=comet_orbit
dust_brightnessfactor=1.5
dust_lengthfactor=0.4
dust_widthfactor=1.5
name=C/Messier (1764)
orbit_ArgOfPericenter=104.85200
orbit_AscendingNode=122.68500
orbit_Eccentricity=1.00000000
orbit_Epoch=2365390.571000
orbit_Inclination=127.09300
orbit_PericenterDistance=0.55521600
orbit_TimeAtPericenter=2365390.57100
orbit_good=1000
radius=5
slope_parameter=4.0
tex_map=nomap.png
type=comet

